OBJECT C                
1 57582U 23117C   25294.00440126  .00028260  00000+0  99667-3 0  9997
2 57582  97.4342   8.5372 0008398  18.4228 341.7314 15.29190300121878
